{
  "type": "FeatureCollection",
  "features": [
    {
      "type": "Feature",
      "properties": {
        "norad_id": 34350,
        "name": "IRIDIUM 33 DEB",
        "group": "iridium-33-debris",
        "lat": -78.45620357698806,
        "lon": -14.035194115147934,
        "alt_km": 759.5401282383264,
        "timestamp": "2025-12-09T07:41:33.595626+00:00",
        "meta_object_name": "IRIDIUM 33 DEB",
        "meta_object_id": "1997-051ES",
        "meta_epoch": "2025-12-08T12:39:42.923232",
        "meta_mean_motion": 14.45373543,
        "meta_eccentricity": 0.00224112,
        "meta_inclination": 86.3278,
        "meta_ra_of_asc_node": 4.6351,
        "meta_arg_of_pericenter": 148.3477,
        "meta_mean_anomaly": 329.0957,
        "meta_ephemeris_type": 0,
        "meta_classification_type": "U",
        "meta_norad_cat_id": 34350,
        "meta_element_set_no": 999,
        "meta_rev_at_epoch": 88232,
        "meta_bstar": 0.00058126986,
        "meta_mean_motion_dot": 2.069e-05,
        "meta_mean_motion_ddot": 0,
        "tle_line1": "1 34350U 97051ES  25342.52758013  .00002069  00000+0  58127-3 0  9996",
        "tle_line2": "2 34350  86.3278   4.6351 0022411 148.3477 329.0957 14.45373543882321"
      },
      "geometry": {
        "type": "Point",
        "coordinates": [
          -14.035194115147934,
          -78.45620357698806
        ]
      }
    },
    {
      "type": "Feature",
      "properties": {
        "norad_id": 34366,
        "name": "IRIDIUM 33 DEB",
        "group": "iridium-33-debris",
        "lat": 37.46115403456186,
        "lon": -131.98826616601534,
        "alt_km": 694.3919078836434,
        "timestamp": "2025-12-09T07:41:33.595636+00:00",
        "meta_object_name": "IRIDIUM 33 DEB",
        "meta_object_id": "1997-051FJ",
        "meta_epoch": "2025-12-08T16:46:27.724800",
        "meta_mean_motion": 14.54002861,
        "meta_eccentricity": 0.00221655,
        "meta_inclination": 86.3693,
        "meta_ra_of_asc_node": 51.0707,
        "meta_arg_of_pericenter": 152.4858,
        "meta_mean_anomaly": 338.307,
        "meta_ephemeris_type": 0,
        "meta_classification_type": "U",
        "meta_norad_cat_id": 34366,
        "meta_element_set_no": 999,
        "meta_rev_at_epoch": 88123,
        "meta_bstar": 0.001683961,
        "meta_mean_motion_dot": 7.142e-05,
        "meta_mean_motion_ddot": 0,
        "tle_line1": "1 34366U 97051FJ  25342.69893200  .00007142  00000+0  16840-2 0  9991",
        "tle_line2": "2 34366  86.3693  51.0707 0022165 152.4858 338.3070 14.54002861881235"
      },
      "geometry": {
        "type": "Point",
        "coordinates": [
          -131.98826616601534,
          37.46115403456186
        ]
      }
    },
    {
      "type": "Feature",
      "properties": {
        "norad_id": 34375,
        "name": "IRIDIUM 33 DEB",
        "group": "iridium-33-debris",
        "lat": 39.149684641241414,
        "lon": 1.1643257368700466,
        "alt_km": 755.1019805537308,
        "timestamp": "2025-12-09T07:41:33.595647+00:00",
        "meta_object_name": "IRIDIUM 33 DEB",
        "meta_object_id": "1997-051FT",
        "meta_epoch": "2025-12-08T14:22:11.917920",
        "meta_mean_motion": 14.17981897,
        "meta_eccentricity": 0.0103,
        "meta_inclination": 86.4327,
        "meta_ra_of_asc_node": 184.3663,
        "meta_arg_of_pericenter": 139.7555,
        "meta_mean_anomaly": 278.6554,
        "meta_ephemeris_type": 0,
        "meta_classification_type": "U",
        "meta_norad_cat_id": 34375,
        "meta_element_set_no": 999,
        "meta_rev_at_epoch": 86653,
        "meta_bstar": 0.00071558,
        "meta_mean_motion_dot": 1.562e-05,
        "meta_mean_motion_ddot": 0,
        "tle_line1": "1 34375U 97051FT  25342.59874905  .00001562  00000+0  71558-3 0  9999",
        "tle_line2": "2 34375  86.4327 184.3663 0103000 139.7555 278.6554 14.17981897866534"
      },
      "geometry": {
        "type": "Point",
        "coordinates": [
          1.1643257368700466,
          39.149684641241414
        ]
      }
    },
    {
      "type": "Feature",
      "properties": {
        "norad_id": 34376,
        "name": "IRIDIUM 33 DEB",
        "group": "iridium-33-debris",
        "lat": -34.37706979592183,
        "lon": 5.538241682817891,
        "alt_km": 707.3343130360254,
        "timestamp": "2025-12-09T07:41:33.595659+00:00",
        "meta_object_name": "IRIDIUM 33 DEB",
        "meta_object_id": "1997-051FU",
        "meta_epoch": "2025-12-08T12:08:43.156320",
        "meta_mean_motion": 14.62473934,
        "meta_eccentricity": 0.00266769,
        "meta_inclination": 86.2983,
        "meta_ra_of_asc_node": 8.4427,
        "meta_arg_of_pericenter": 181.0135,
        "meta_mean_anomaly": 179.1027,
        "meta_ephemeris_type": 0,
        "meta_classification_type": "U",
        "meta_norad_cat_id": 34376,
        "meta_element_set_no": 999,
        "meta_rev_at_epoch": 87945,
        "meta_bstar": 0.0017835286,
        "meta_mean_motion_dot": 9.105e-05,
        "meta_mean_motion_ddot": 0,
        "tle_line1": "1 34376U 97051FU  25342.50605505  .00009105  00000+0  17835-2 0  9997",
        "tle_line2": "2 34376  86.2983   8.4427 0026676 181.0135 179.1027 14.62473934879455"
      },
      "geometry": {
        "type": "Point",
        "coordinates": [
          5.538241682817891,
          -34.37706979592183
        ]
      }
    },
    {
      "type": "Feature",
      "properties": {
        "norad_id": 34486,
        "name": "IRIDIUM 33 DEB",
        "group": "iridium-33-debris",
        "lat": 45.08012675121283,
        "lon": -170.02301646934353,
        "alt_km": 567.806444350721,
        "timestamp": "2025-12-09T07:41:33.595670+00:00",
        "meta_object_name": "IRIDIUM 33 DEB",
        "meta_object_id": "1997-051GB",
        "meta_epoch": "2025-12-08T20:37:16.638240",
        "meta_mean_motion": 14.95523221,
        "meta_eccentricity": 0.00133479,
        "meta_inclination": 86.3939,
        "meta_ra_of_asc_node": 13.8156,
        "meta_arg_of_pericenter": 124.9718,
        "meta_mean_anomaly": 47.7337,
        "meta_ephemeris_type": 0,
        "meta_classification_type": "U",
        "meta_norad_cat_id": 34486,
        "meta_element_set_no": 999,
        "meta_rev_at_epoch": 88928,
        "meta_bstar": 0.0028483894,
        "meta_mean_motion_dot": 0.00031735,
        "meta_mean_motion_ddot": 0,
        "tle_line1": "1 34486U 97051GB  25342.85922035  .00031735  00000+0  28484-2 0  9993",
        "tle_line2": "2 34486  86.3939  13.8156 0013347 124.9718  47.7337 14.95523221889289"
      },
      "geometry": {
        "type": "Point",
        "coordinates": [
          -170.02301646934353,
          45.08012675121283
        ]
      }
    },
    {
      "type": "Feature",
      "properties": {
        "norad_id": 34487,
        "name": "IRIDIUM 33 DEB",
        "group": "iridium-33-debris",
        "lat": 74.063568541408,
        "lon": 26.7893059512566,
        "alt_km": 730.91080181488,
        "timestamp": "2025-12-09T07:41:33.595682+00:00",
        "meta_object_name": "IRIDIUM 33 DEB",
        "meta_object_id": "1997-051GC",
        "meta_epoch": "2025-12-08T08:07:14.868192",
        "meta_mean_motion": 14.43208344,
        "meta_eccentricity": 0.00324214,
        "meta_inclination": 86.3438,
        "meta_ra_of_asc_node": 14.2722,
        "meta_arg_of_pericenter": 142.2384,
        "meta_mean_anomaly": 232.9824,
        "meta_ephemeris_type": 0,
        "meta_classification_type": "U",
        "meta_norad_cat_id": 34487,
        "meta_element_set_no": 999,
        "meta_rev_at_epoch": 88185,
        "meta_bstar": 0.00035758899,
        "meta_mean_motion_dot": 1.229e-05,
        "meta_mean_motion_ddot": 0,
        "tle_line1": "1 34487U 97051GC  25342.33836653  .00001229  00000+0  35759-3 0  9996",
        "tle_line2": "2 34487  86.3438  14.2722 0032421 142.2384 232.9824 14.43208344881857"
      },
      "geometry": {
        "type": "Point",
        "coordinates": [
          26.7893059512566,
          74.063568541408
        ]
      }
    },
    {
      "type": "Feature",
      "properties": {
        "norad_id": 34488,
        "name": "IRIDIUM 33 DEB",
        "group": "iridium-33-debris",
        "lat": 71.02789251441719,
        "lon": -41.71859218586523,
        "alt_km": 465.2140828728916,
        "timestamp": "2025-12-09T07:41:33.595693+00:00",
        "meta_object_name": "IRIDIUM 33 DEB",
        "meta_object_id": "1997-051GD",
        "meta_epoch": "2025-12-08T21:57:07.267680",
        "meta_mean_motion": 15.27997887,
        "meta_eccentricity": 0.00143522,
        "meta_inclination": 86.3246,
        "meta_ra_of_asc_node": 307.7053,
        "meta_arg_of_pericenter": 57.4212,
        "meta_mean_anomaly": 302.8418,
        "meta_ephemeris_type": 0,
        "meta_classification_type": "U",
        "meta_norad_cat_id": 34488,
        "meta_element_set_no": 999,
        "meta_rev_at_epoch": 89181,
        "meta_bstar": 0.0052155248,
        "meta_mean_motion_dot": 0.00145336,
        "meta_mean_motion_ddot": 0,
        "tle_line1": "1 34488U 97051GD  25342.91466745  .00145336  00000+0  52155-2 0  9998",
        "tle_line2": "2 34488  86.3246 307.7053 0014352  57.4212 302.8418 15.27997887891815"
      },
      "geometry": {
        "type": "Point",
        "coordinates": [
          -41.71859218586523,
          71.02789251441719
        ]
      }
    }
  ]
}